[{"OBJECT_NAME":"STARLINK-6359","OBJECT_ID":"2023-099U","EPOCH":"2026-03-09T22:00:01.999584","MEAN_MOTION":15.13701843,"ECCENTRICITY":0.00012087,"INCLINATION":42.9993,"RA_OF_ASC_NODE":246.9372,"ARG_OF_PERICENTER":257.6436,"MEAN_ANOMALY":334.656,"EPHEMERIS_TYPE":0,"CLASSIFICATION_TYPE":"U","NORAD_CAT_ID":57346,"ELEMENT_SET_NO":999,"REV_AT_EPOCH":578,"BSTAR":0.0068353409,"MEAN_MOTION_DOT":0.00127287,"MEAN_MOTION_DDOT":0},{"OBJECT_NAME":"OBJECT A","OBJECT_ID":"2024-094A","EPOCH":"2026-03-07T00:47:02.877216","MEAN_MOTION":15.17421746,"ECCENTRICITY":0.00076871,"INCLINATION":97.396,"RA_OF_ASC_NODE":139.425,"ARG_OF_PERICENTER":177.7286,"MEAN_ANOMALY":182.3984,"EPHEMERIS_TYPE":0,"CLASSIFICATION_TYPE":"U","NORAD_CAT_ID":59805,"ELEMENT_SET_NO":999,"REV_AT_EPOCH":9968,"BSTAR":1.8416853e-5,"MEAN_MOTION_DOT":3.03e-6,"MEAN_MOTION_DDOT":0}]
